{"type": "FeatureCollection", "features": [ {"type": "Feature", "properties": {"norad_id": 32289, "name": "YAOGAN-3", "group": "resource", "lat": 55.17239270191401, "lon": 2.7650093309165813, "alt_km": 592.3225063233613, "timestamp": "2025-12-13T13:34:34.731374+00:00", "meta": {"OBJECT_NAME": "YAOGAN-3", "OBJECT_ID": "2007-055A", "EPOCH": "2025-12-13T00:25:51.757824", "MEAN_MOTION": 14.89860327, "ECCENTRICITY": 0.00012462, "INCLINATION": 97.8368, "RA_OF_ASC_NODE": 13.6402, "ARG_OF_PERICENTER": 79.8015, "MEAN_ANOMALY": 280.3343, "EPHEMERIS_TYPE": 0, "CLASSIFICATION_TYPE": "U", "NORAD_CAT_ID": 32289, "ELEMENT_SET_NO": 999, "REV_AT_EPOCH": 97813, "BSTAR": 0.00044832425, "MEAN_MOTION_DOT": 4.254e-05, "MEAN_MOTION_DDOT": 0}, "tle": {"line1": "1 32289U 07055A   25347.01796016  .00004254  00000+0  44832-3 0  9990", "line2": "2 32289  97.8368  13.6402 0001246  79.8015 280.3343 14.89860327978135"}}, "geometry": {"type": "Point", "coordinates": [2.7650093309165813, 55.17239270191401]}}, {"type": "Feature", "properties": {"norad_id": 32376, "name": "COSMO-SKYMED 2", "group": "resource", "lat": -47.237223363339055, "lon": 177.49120486390717, "alt_km": 629.9940691825896, "timestamp": "2025-12-13T13:34:34.731386+00:00", "meta": {"OBJECT_NAME": "COSMO-SKYMED 2", "OBJECT_ID": "2007-059A", "EPOCH": "2025-12-13T00:49:47.443296", "MEAN_MOTION": 14.82167021, "ECCENTRICITY": 0.00015014, "INCLINATION": 97.8811, "RA_OF_ASC_NODE": 168.354, "ARG_OF_PERICENTER": 84.1644, "MEAN_ANOMALY": 275.974, "EPHEMERIS_TYPE": 0, "CLASSIFICATION_TYPE": "U", "NORAD_CAT_ID": 32376, "ELEMENT_SET_NO": 999, "REV_AT_EPOCH": 97442, "BSTAR": 0.00011989246, "MEAN_MOTION_DOT": 9.03e-06, "MEAN_MOTION_DDOT": 0}, "tle": {"line1": "1 32376U 07059A   25347.03457689  .00000903  00000+0  11989-3 0  9997", "line2": "2 32376  97.8811 168.3540 0001501  84.1644 275.9740 14.82167021974420"}}, "geometry": {"type": "Point", "coordinates": [177.49120486390717, -47.237223363339055]}}, {"type": "Feature", "properties": {"norad_id": 32382, "name": "RADARSAT-2", "group": "resource", "lat": 71.62583381040504, "lon": -160.8203314300264, "alt_km": 784.1044101052994, "timestamp": "2025-12-13T13:34:34.731397+00:00", "meta": {"OBJECT_NAME": "RADARSAT-2", "OBJECT_ID": "2007-061A", "EPOCH": "2025-12-12T23:38:48.452928", "MEAN_MOTION": 14.29982488, "ECCENTRICITY": 0.00011322, "INCLINATION": 98.5803, "RA_OF_ASC_NODE": 351.5717, "ARG_OF_PERICENTER": 86.2615, "MEAN_ANOMALY": 273.8697, "EPHEMERIS_TYPE": 0, "CLASSIFICATION_TYPE": "U", "NORAD_CAT_ID": 32382, "ELEMENT_SET_NO": 999, "REV_AT_EPOCH": 93934, "BSTAR": 0.00012993317, "MEAN_MOTION_DOT": 2.91e-06, "MEAN_MOTION_DDOT": 0}, "tle": {"line1": "1 32382U 07061A   25346.98528302  .00000291  00000+0  12993-3 0  9997", "line2": "2 32382  98.5803 351.5717 0001132  86.2615 273.8697 14.29982488939342"}}, "geometry": {"type": "Point", "coordinates": [-160.8203314300264, 71.62583381040504]}}, {"type": "Feature", "properties": {"norad_id": 32783, "name": "CARTOSAT-2A", "group": "resource", "lat": 79.1782128772751, "lon": -8.398400574465335, "alt_km": 623.9163102797856, "timestamp": "2025-12-13T13:34:34.731407+00:00", "meta": {"OBJECT_NAME": "CARTOSAT-2A", "OBJECT_ID": "2008-021A", "EPOCH": "2025-12-13T00:12:54.835200", "MEAN_MOTION": 14.78937255, "ECCENTRICITY": 0.00118562, "INCLINATION": 97.793, "RA_OF_ASC_NODE": 36.8236, "ARG_OF_PERICENTER": 3.9901, "MEAN_ANOMALY": 356.1403, "EPHEMERIS_TYPE": 0, "CLASSIFICATION_TYPE": "U", "NORAD_CAT_ID": 32783, "ELEMENT_SET_NO": 999, "REV_AT_EPOCH": 95128, "BSTAR": 0.0001506099, "MEAN_MOTION_DOT": 1.062e-05, "MEAN_MOTION_DDOT": 0}, "tle": {"line1": "1 32783U 08021A   25347.00896800  .00001062  00000+0  15061-3 0  9990", "line2": "2 32783  97.7930  36.8236 0011856   3.9901 356.1403 14.78937255951289"}}, "geometry": {"type": "Point", "coordinates": [-8.398400574465335, 79.1782128772751]}}, {"type": "Feature", "properties": {"norad_id": 33320, "name": "HUANJING 1A (HJ-1A)", "group": "resource", "lat": -38.931309736525684, "lon": -17.933507880427076, "alt_km": 620.4895790430592, "timestamp": "2025-12-13T13:34:34.731417+00:00", "meta": {"OBJECT_NAME": "HUANJING 1A (HJ-1A)", "OBJECT_ID": "2008-041A", "EPOCH": "2025-12-13T00:48:06.230880", "MEAN_MOTION": 14.83396277, "ECCENTRICITY": 0.0020083, "INCLINATION": 97.6543, "RA_OF_ASC_NODE": 335.3197, "ARG_OF_PERICENTER": 33.408, "MEAN_ANOMALY": 326.8397, "EPHEMERIS_TYPE": 0, "CLASSIFICATION_TYPE": "U", "NORAD_CAT_ID": 33320, "ELEMENT_SET_NO": 999, "REV_AT_EPOCH": 93080, "BSTAR": 0.00029939229, "MEAN_MOTION_DOT": 2.414e-05, "MEAN_MOTION_DDOT": 0}, "tle": {"line1": "1 33320U 08041A   25347.03340545  .00002414  00000+0  29939-3 0  9994", "line2": "2 33320  97.6543 335.3197 0020083  33.4080 326.8397 14.83396277930807"}}, "geometry": {"type": "Point", "coordinates": [-17.933507880427076, -38.931309736525684]}}, {"type": "Feature", "properties": {"norad_id": 33321, "name": "HUANJING 1B (HJ-1B)", "group": "resource", "lat": -0.892279477679022, "lon": 159.40467203613665, "alt_km": 631.6132703262392, "timestamp": "2025-12-13T13:34:34.731426+00:00", "meta": {"OBJECT_NAME": "HUANJING 1B (HJ-1B)", "OBJECT_ID": "2008-041B", "EPOCH": "2025-12-12T23:48:40.069152", "MEAN_MOTION": 14.82822548, "ECCENTRICITY": 0.00381205, "INCLINATION": 97.6403, "RA_OF_ASC_NODE": 338.9763, "ARG_OF_PERICENTER": 74.9069, "MEAN_ANOMALY": 285.6358, "EPHEMERIS_TYPE": 0, "CLASSIFICATION_TYPE": "U", "NORAD_CAT_ID": 33321, "ELEMENT_SET_NO": 999, "REV_AT_EPOCH": 93081, "BSTAR": 0.00027563316, "MEAN_MOTION_DOT": 2.207e-05, "MEAN_MOTION_DDOT": 0}, "tle": {"line1": "1 33321U 08041B   25346.99213043  .00002207  00000+0  27563-3 0  9992", "line2": "2 33321  97.6403 338.9763 0038120  74.9069 285.6358 14.82822548930813"}}, "geometry": {"type": "Point", "coordinates": [159.40467203613665, -0.892279477679022]}}, {"type": "Feature", "properties": {"norad_id": 33331, "name": "GEOEYE 1", "group": "resource", "lat": 65.52730501698956, "lon": -102.8702559345316, "alt_km": 673.090565126522, "timestamp": "2025-12-13T13:34:34.731435+00:00", "meta": {"OBJECT_NAME": "GEOEYE 1", "OBJECT_ID": "2008-042A", "EPOCH": "2025-12-12T22:18:24.580224", "MEAN_MOTION": 14.64813221, "ECCENTRICITY": 0.00027356, "INCLINATION": 98.1253, "RA_OF_ASC_NODE": 58.2078, "ARG_OF_PERICENTER": 275.323, "MEAN_ANOMALY": 84.7661, "EPHEMERIS_TYPE": 0, "CLASSIFICATION_TYPE": "U", "NORAD_CAT_ID": 33331, "ELEMENT_SET_NO": 999, "REV_AT_EPOCH": 92288, "BSTAR": 0.00018979158, "MEAN_MOTION_DOT": 9.65e-06, "MEAN_MOTION_DDOT": 0}, "tle": {"line1": "1 33331U 08042A   25346.92945116  .00000965  00000+0  18979-3 0  9990", "line2": "2 33331  98.1253  58.2078 0002735 275.3230  84.7661 14.64813221922885"}}, "geometry": {"type": "Point", "coordinates": [-102.8702559345316, 65.52730501698956]}}, {"type": "Feature", "properties": {"norad_id": 33396, "name": "THEOS", "group": "resource", "lat": -17.090675591366995, "lon": -137.03228465572502, "alt_km": 830.0750464728872, "timestamp": "2025-12-13T13:34:34.731445+00:00", "meta": {"OBJECT_NAME": "THEOS", "OBJECT_ID": "2008-049A", "EPOCH": "2025-12-13T00:48:50.190336", "MEAN_MOTION": 14.20095461, "ECCENTRICITY": 0.0001183, "INCLINATION": 98.5864, "RA_OF_ASC_NODE": 45.1143, "ARG_OF_PERICENTER": 95.7606, "MEAN_ANOMALY": 264.3706, "EPHEMERIS_TYPE": 0, "CLASSIFICATION_TYPE": "U", "NORAD_CAT_ID": 33396, "ELEMENT_SET_NO": 999, "REV_AT_EPOCH": 89154, "BSTAR": -3.5324975e-05, "MEAN_MOTION_DOT": -1.18e-06, "MEAN_MOTION_DDOT": 0}, "tle": {"line1": "1 33396U 08049A   25347.03391424 -.00000118  00000+0 -35325-4 0  9995", "line2": "2 33396  98.5864  45.1143 0001183  95.7606 264.3706 14.20095461891547"}}, "geometry": {"type": "Point", "coordinates": [-137.03228465572502, -17.090675591366995]}}, {"type": "Feature", "properties": {"norad_id": 33412, "name": "COSMO-SKYMED 3", "group": "resource", "lat": 2.1909196852416706, "lon": 18.273427149383217, "alt_km": 542.0370061374797, "timestamp": "2025-12-13T13:34:34.731455+00:00", "meta": {"OBJECT_NAME": "COSMO-SKYMED 3", "OBJECT_ID": "2008-054A", "EPOCH": "2025-12-13T00:01:38.887392", "MEAN_MOTION": 15.0536584, "ECCENTRICITY": 0.00161009, "INCLINATION": 97.8474, "RA_OF_ASC_NODE": 197.3972, "ARG_OF_PERICENTER": 172.7689, "MEAN_ANOMALY": 187.3772, "EPHEMERIS_TYPE": 0, "CLASSIFICATION_TYPE": "U", "NORAD_CAT_ID": 33412, "ELEMENT_SET_NO": 999, "REV_AT_EPOCH": 92891, "BSTAR": 0.00068654791, "MEAN_MOTION_DOT": 9.808e-05, "MEAN_MOTION_DDOT": 0}, "tle": {"line1": "1 33412U 08054A   25347.00114453  .00009808  00000+0  68655-3 0  9996", "line2": "2 33412  97.8474 197.3972 0016100 172.7689 187.3772 15.05365840928911"}}, "geometry": {"type": "Point", "coordinates": [18.273427149383217, 2.1909196852416706]}}, {"type": "Feature", "properties": {"norad_id": 33446, "name": "YAOGAN-4", "group": "resource", "lat": 81.89382399390706, "lon": 175.38315003884864, "alt_km": 619.6300043972906, "timestamp": "2025-12-13T13:34:34.731465+00:00", "meta": {"OBJECT_NAME": "YAOGAN-4", "OBJECT_ID": "2008-061A", "EPOCH": "2025-12-12T19:20:52.548864", "MEAN_MOTION": 14.8268323, "ECCENTRICITY": 0.00135668, "INCLINATION": 97.918, "RA_OF_ASC_NODE": 276.9049, "ARG_OF_PERICENTER": 323.087, "MEAN_ANOMALY": 36.9408, "EPHEMERIS_TYPE": 0, "CLASSIFICATION_TYPE": "U", "NORAD_CAT_ID": 33446, "ELEMENT_SET_NO": 999, "REV_AT_EPOCH": 91804, "BSTAR": 0.00030747624, "MEAN_MOTION_DOT": 2.43e-05, "MEAN_MOTION_DDOT": 0}, "tle": {"line1": "1 33446U 08061A   25346.80616376  .00002430  00000+0  30748-3 0  9995", "line2": "2 33446  97.9180 276.9049 0013566 323.0870  36.9408 14.82683230918046"}}, "geometry": {"type": "Point", "coordinates": [175.38315003884864, 81.89382399390706]}}]}